LEMUR-2-KUNGFOO         
1 42774U 17036K   18011.14389924  .00001355  00000-0  64691-4 0  9996
2 42774  97.4245  73.1444 0013074 252.9228 107.0575 15.20714043 30628
AALTO-1                 
1 42775U 17036L   18010.75773808  .00000764  00000-0  38130-4 0  9993
2 42775  97.4239  72.7348 0012764 253.5777 106.4055 15.20456130 30571
URSA MAIOR              
1 42776U 17036M   18010.75145475  .00000799  00000-0  39636-4 0  9997
2 42776  97.4243  72.7513 0012635 253.7311 106.2535 15.20518739 30579
COMPASS 2               
1 42777U 17036N   18011.15321181  .00001530  00000-0  71671-4 0  9992
2 42777  97.4256  73.3116 0011635 256.2720 103.7221 15.21186029 30636
LEMUR-2-LYNSEY-SYMO     
1 42779U 17036Q   18010.72608092  .00001515  00000-0  70400-4 0  9997
2 42779  97.4252  72.9452 0011117 264.9129  95.0838 15.21482549 30561
LEMUR-2-LISASAURUS      
1 42780U 17036R   18010.92982604  .00001362  00000-0  63852-4 0  9998
2 42780  97.4246  73.1219 0011026 264.5233  95.4745 15.21354812 30608
LEMUR-2-SAM-AMELIA      
1 42781U 17036S   18010.72065943  .00001563  00000-0  72453-4 0  9995
2 42781  97.4249  72.9428 0010938 265.4534  94.5452 15.21518171 30566
LEMUR-2-MCPEAKE         
1 42782U 17036T   18010.71652832  .00001500  00000-0  69590-4 0  9993
2 42782  97.4251  72.9539 0010818 264.9413  95.0588 15.21549464 30565
DIAMOND RED             
1 42783U 17036U   18010.74003230  .00000568  00000-0  28617-4 0  9997
2 42783  97.4241  72.9118 0010920 267.3746  92.6239 15.21118423 30572
PEGASUS                 
1 42784U 17036V   18010.73070948  .00001069  00000-0  50928-4 0  9994
2 42784  97.4243  72.9276 0010876 267.7960  92.2030 15.21257310 30576
DIAMOND GREEN           
1 42785U 17036W   18010.93652764  .00000947  00000-0  45641-4 0  9999
2 42785  97.4244  73.1136 0010821 267.3771  92.6226 15.21118962 30673
DIAMOND BLUE            
1 42786U 17036X   18010.73813001  .00000924  00000-0  44597-4 0  9995
2 42786  97.4244  72.9192 0010644 268.4288  91.5728 15.21114221 30647
NUDTSAT                 
1 42787U 17036Y   18010.89641495  .00001560  00000-0  72050-4 0  9991
2 42787  97.4246  73.1662 0010488 267.1532  92.8503 15.21660436 30446
SUCHAI                  
1 42788U 17036Z   18011.10673616  .00001246  00000-0  58493-4 0  9993
2 42788  97.4243  73.3396 0010515 266.3689  93.6345 15.21461870 30708
SKCUBE                  
1 42789U 17036AA  18010.70933114  .00001154  00000-0  54417-4 0  9991
2 42789  97.4242  72.9514 0010332 267.9303  92.0750 15.21454685 30565
VZLUSAT-1               
1 42790U 17036AB  18010.75700410  .00001410  00000-0  65356-4 0  9998
2 42790  97.4243  73.0369 0010034 268.0460  91.9626 15.21691804 30570
ROBUSTA-1B              
1 42792U 17036AD  18011.15260760  .00001192  00000-0  55902-4 0  9997
2 42792  97.4240  73.4214 0009913 267.4424  92.5677 15.21590042 30642
CICERO 6                
1 42793U 17036AE  18010.94088914  .00000726  00000-0  35254-4 0  9993
2 42793  97.4236  73.2407 0008992 269.6399  90.3807 15.21579748 30686
D-SAT                   
1 42794U 17036AF  18010.71694264  .00000338  00000-0  34720-4 0  9996
2 42794  97.6158  71.1312 0128797  86.1869 275.4065 14.90758845 30262
TOKI                    
1 42820U 98067MU  18010.64733430  .00014509  00000-0  17081-3 0  9995
2 42820  51.6377  78.6461 0002898 301.3205  58.7504 15.61660940 29211
GHANASAT-1              
1 42821U 98067MV  18010.59834046  .00013831  00000-0  16467-3 0  9999
2 42821  51.6377  79.0691 0002894 304.5983  55.4737 15.61414379 29165
MAZAALAI (NUMSAT-1)     
1 42822U 98067MW  18010.65967619  .00013911  00000-0  16503-3 0  9990
2 42822  51.6378  78.7303 0002914 307.2948  52.7780 15.61502932 29191
BRAC ONNESHA            
1 42823U 98067MX  18010.59728665  .00014223  00000-0  16845-3 0  9996
2 42823  51.6384  79.0717 0005907 322.1243  37.9334 15.61513523 29166
NIGERIAEDUSAT-1         
1 42824U 98067MY  18010.60660273  .00013977  00000-0  16634-3 0  9990
2 42824  51.6390  79.1401 0005791 322.7269  37.3322 15.61404800 29180
LEMUR-2-GREENBERG       
1 42837U 17042N   18010.78130665  .00000452  00000-0  50765-4 0  9992
2 42837  97.6083 279.0723 0013572   8.0138 352.1295 14.91285098 26896
LEMUR-2-ANDIS           
1 42838U 17042P   18010.84589908  .00000481  00000-0  53681-4 0  9990
2 42838  97.6083 279.1395 0013684   7.6746 352.4679 14.91307000 26906
LEMUR-2-MONSON          
1 42839U 17042Q   18010.70364016  .00000350  00000-0  40536-4 0  9997
2 42839  97.6082 279.0193 0013349   7.5934 352.5485 14.91320092 26886
LEMUR-2-FURIAUS         
1 42840U 17042R   18010.69547068  .00000656  00000-0  70964-4 0  9994
2 42840  97.6082 279.0281 0013461   7.6752 352.4670 14.91440732 26878
LEMUR-2-PETERG          
1 42841U 17042S   18011.14919735  .00000721  00000-0  77185-4 0  9995
2 42841  97.6084 279.5038 0013034   4.9903 355.1444 14.91571992 26951
LEMUR-2-DEMBITZ         
1 42842U 17042T   18010.74407684  .00000690  00000-0  74081-4 0  9993
2 42842  97.6082 279.1154 0013100   6.8227 353.3168 14.91592253 26898
LEMUR-2-ZACHARY         
1 42845U 17042W   18010.78600197  .00000420  00000-0  46932-4 0  9999
2 42845  97.6031 279.0949 0013570  11.0335 349.1179 14.91789358 26894
FLOCK 2K-03             
1 42850U 17042AB  18010.66515357  .00003385  00000-0  10073-3 0  9994
2 42850  96.9937 275.1808 0010466 333.9033  26.1683 15.35314127 27452
FLOCK 2K-04             
1 42851U 17042AC  18010.79863800  .00002071  00000-0  62478-4 0  9996
2 42851  96.9942 275.3066 0010367 335.9735  24.1025 15.35312822 27478
FLOCK 2K-01             
1 42852U 17042AD  18011.18811650  .00002217  00000-0  66712-4 0  9994
2 42852  96.9937 275.6748 0010099 332.8900  27.1816 15.35321327 27533
FLOCK 2K-02             
1 42853U 17042AE  18010.76585430  .00001463  00000-0  47481-4 0  9996
2 42853  96.9950 275.0717 0011063 333.5090  26.5586 15.33409496 27459
FLOCK 2K-47             
1 42854U 17042AF  18010.79373066  .00001820  00000-0  55157-4 0  9996
2 42854  96.9937 275.3053 0009947 331.6245  28.4457 15.35308318 27473
FLOCK 2K-48             
1 42855U 17042AG  18010.79241668  .00001912  00000-0  57846-4 0  9998
2 42855  96.9941 275.3136 0009921 332.1517  27.9195 15.35316273 27473
FLOCK 2K-45             
1 42856U 17042AH  18010.72543306  .00006930  00000-0  20389-3 0  9992
2 42856  96.9936 275.2490 0009841 330.8060  29.2633 15.35327610 27467
FLOCK 2K-24             
1 42857U 17042AJ  18010.79326889  .00001457  00000-0  44968-4 0  9994
2 42857  96.9940 275.3081 0009991 327.6391  32.4239 15.35035604 27475
FLOCK 2K-46             
1 42858U 17042AK  18010.72389013  .00005271  00000-0  15569-3 0  9998
2 42858  96.9941 275.2608 0009899 331.2225  28.8473 15.35313395 27469
FLOCK 2K-23             
1 42859U 17042AL  18010.78729256  .00007295  00000-0  21459-3 0  9995
2 42859  96.9940 275.3216 0009916 332.2600  27.8114 15.35314106 27476
FLOCK 2K-21             
1 42860U 17042AM  18011.17705885  .00007465  00000-0  21933-3 0  9999
2 42860  96.9940 275.6932 0009843 330.5305  29.5384 15.35346235 27531
FLOCK 2K-22             
1 42861U 17042AN  18011.19210304  .00007680  00000-0  22546-3 0  9999
2 42861  96.9943 275.6812 0009875 329.4879  30.5790 15.35359584 27534
FLOCK 2K-07             
1 42862U 17042AP  18010.78400789  .00001981  00000-0  59867-4 0  9997
2 42862  96.9945 275.3281 0010249 332.3729  27.6970 15.35311801 27489
FLOCK 2K-08             
1 42863U 17042AQ  18010.71596466  .00006793  00000-0  19987-3 0  9993
2 42863  96.9938 275.2624 0010261 333.5230  26.5489 15.35330029 27460
FLOCK 2K-05             
1 42864U 17042AR  18010.78257041  .00003556  00000-0  10575-3 0  9992
2 42864  96.9941 275.3297 0010198 331.8994  28.1699 15.35308677 27475
FLOCK 2K-40             
1 42865U 17042AS  18011.17049159  .00006827  00000-0  20088-3 0  9990
2 42865  96.9943 275.7052 0010242 331.8101  28.2588 15.35326300 27539
FLOCK 2K-39             
1 42866U 17042AT  18010.90804770  .00007910  00000-0  23228-3 0  9992
2 42866  96.9939 275.4547 0010315 331.6541  28.4141 15.35336004 27492
FLOCK 2K-37             
1 42867U 17042AU  18010.77602911  .00007691  00000-0  22597-3 0  9995
2 42867  96.9940 275.3358 0010406 331.9761  28.0922 15.35327530 27477
FLOCK 2K-38             
1 42868U 17042AV  18010.90323902  .00007799  00000-0  22898-3 0  9994
2 42868  96.9940 275.4622 0010317 329.9941  30.0711 15.35349218 27499
FLOCK 2K-31             
1 42869U 17042AW  18010.90143924  .00006341  00000-0  18673-3 0  9997
2 42869  96.9938 275.4617 0010370 327.9144  32.1468 15.35324741 27499
FLOCK 2K-32             
1 42870U 17042AX  18010.76953361  .00007756  00000-0  22789-3 0  9991
2 42870  96.9937 275.3399 0010331 328.8409  31.2222 15.35326327 27475
FLOCK 2K-29             
1 42871U 17042AY  18010.76801039  .00005905  00000-0  17410-3 0  9995
2 42871  96.9938 275.3457 0010460 328.0782  31.9828 15.35315717 27471
FLOCK 2K-30             
1 42872U 17042AZ  18010.76597249  .00007757  00000-0  22812-3 0  9990
2 42872  96.9938 275.3453 0010434 329.2824  30.7809 15.35296641 27468
FLOCK 2K-44             
1 42873U 17042BA  18011.22092730  .00007899  00000-0  23203-3 0  9990
2 42873  96.9939 275.7833 0010893 314.8285  45.2073 15.35323955 27548
FLOCK 2K-43             
1 42874U 17042BB  18010.70174816  .00001588  00000-0  50414-4 0  9993
2 42874  96.9946 275.1449 0011735 318.5026  41.5325 15.33991061 27450
FLOCK 2K-41             
1 42875U 17042BC  18010.69303039  .00004341  00000-0  12749-3 0  9991
2 42875  96.9938 275.2932 0011292 319.6643  40.3763 15.35572659 27469
FLOCK 2K-36             
1 42876U 17042BD  18010.76431683  .00001407  00000-0  43466-4 0  9998
2 42876  96.9946 275.3551 0011610 318.5757  41.4606 15.35056771 27476
FLOCK 2K-35             
1 42877U 17042BE  18010.76130666  .00001676  00000-0  51054-4 0  9996
2 42877  96.9943 275.3557 0011419 318.3137  41.7236 15.35241242 27478
